[
    {
        "id": 1703,
        "parent_id": null,
        "name_uz": "Андижон вилояти",
        "name_oz": "Andijon viloyati",
        "name_ru": "Андижанская область",
        "name_en": null,
        "regional_center": null,
        "status": 1
    },
    {
        "id": 1706,
        "parent_id": null,
        "name_uz": "Бухоро вилояти",
        "name_oz": "Buxoro viloyati",
        "name_ru": "Бухарская область",
        "name_en": null,
        "regional_center":  null,
        "status": 1
    },
    {
        "id": 1708,
        "parent_id": null,
        "name_uz": "Жиззах вилояти",
        "name_oz": "Jizzax viloyati",
        "name_ru": "Джизакская область",
        "name_en": null,
        "regional_center":  null,
        "status": 1
    },
    {
        "id": 1710,
        "parent_id": null,
        "name_uz": "Қашқадарё вилояти",
        "name_oz": "Qashqadaryo viloyati",
        "name_ru": "Кашкадарьинская область",
        "name_en": null,
        "regional_center":  null,
        "status": 1
    },
    {
        "id": 1712,
        "parent_id": null,
        "name_uz": "Навоий вилояти",
        "name_oz": "Navoiy viloyati",
        "name_ru": "Навоийская область",
        "name_en": null,
        "regional_center":  null,
        "status": 1
    },
    {
        "id": 1714,
        "parent_id": null,
        "name_uz": "Наманган вилояти",
        "name_oz": "Namangan viloyati",
        "name_ru": "Наманганская область",
        "name_en": null,
        "regional_center":  null,
        "status": 1
    },
    {
        "id": 1718,
        "parent_id": null,
        "name_uz": "Самарқанд вилояти",
        "name_oz": "Samarqand viloyati",
        "name_ru": "Самаркандская область",
        "name_en": null,
        "regional_center":  null,
        "status": 1
    },
    {
        "id": 1722,
        "parent_id": null,
        "name_uz": "Сурхондарё вилояти",
        "name_oz": "Surxondaryo viloyati",
        "name_ru": "Сурхандарьинская область",
        "name_en": null,
        "regional_center":  null,
        "status": 1
    },
    {
        "id": 1724,
        "parent_id": null,
        "name_uz": "Сирдарё вилояти",
        "name_oz": "Sirdaryo viloyati",
        "name_ru": "Сырдарьинская область",
        "name_en": null,
        "regional_center":  null,
        "status": 1
    },
    {
        "id": 1726,
        "parent_id": null,
        "name_uz": "Тошкент шаҳри",
        "name_oz": "Toshkent shahri",
        "name_ru": "г. Ташкент",
        "name_en": null,
        "regional_center":  null,
        "status": 1
    },
    {
        "id": 1727,
        "parent_id": null,
        "name_uz": "Тошкент вилояти",
        "name_oz": "Toshkent viloyati",
        "name_ru": "Ташкентская область",
        "name_en": null,
        "regional_center":  null,
        "status": 1
    },
    {
        "id": 1730,
        "parent_id": null,
        "name_uz": "Фарғона вилояти",
        "name_oz": "Farg`ona viloyati",
        "name_ru": "Ферганская область",
        "name_en": null,
        "regional_center":  null,
        "status": 1
    },
    {
        "id": 1733,
        "parent_id": null,
        "name_uz": "Хоразм вилояти",
        "name_oz": "Xorazm viloyati",
        "name_ru": "Хорезмская область",
        "name_en": null,
        "regional_center":  null,
        "status": 1
    },
    {
        "id": 1735,
        "parent_id": null,
        "name_uz": "Қорақалпоғистон Республикаси",
        "name_oz": "Qoraqalpog`iston Respublikasi",
        "name_ru": "Республика Каракалпакстан",
        "name_en": null,
        "regional_center":  null,
        "status": 1
    },
    {
        "id": 1703202,
        "parent_id": 1703,
        "name_uz": "Олтинкўл тумани",
        "name_oz": "Oltinko`l tumani",
        "name_ru": "Алтынкульский район",
        "name_en": null,
        "regional_center":  null,
        "status": 1
    },
    {
        "id": 1703203,
        "parent_id": 1703,
        "name_uz": "Андижон тумани",
        "name_oz": "Andijon tumani",
        "name_ru": "Андижанский район",
        "name_en": null,
        "regional_center":  null,
        "status": 1
    },
    {
        "id": 1703206,
        "parent_id": 1703,
        "name_uz": "Балиқчи тумани",
        "name_oz": "Baliqchi tumani",
        "name_ru": "Балыкчинский район",
        "name_en": null,
        "regional_center":  null,
        "status": 1
    },
    {
        "id": 1703209,
        "parent_id": 1703,
        "name_uz": "Бўcтон тумани",
        "name_oz": "Bo`ston tumani",
        "name_ru": "Бустонский район",
        "name_en": null,
        "regional_center":  null,
        "status": 1
    },
    {
        "id": 1703210,
        "parent_id": 1703,
        "name_uz": "Булоқбоши тумани",
        "name_oz": "Buloqboshi tumani",
        "name_ru": "Булакбашинский район",
        "name_en": null,
        "regional_center":  null,
        "status": 1
    },
    {
        "id": 1703211,
        "parent_id": 1703,
        "name_uz": "Жалолқудуқ тумани",
        "name_oz": "Jalolquduq tumani",
        "name_ru": "Джалалкудукский район",
        "name_en": null,
        "regional_center":  null,
        "status": 1
    },
    {
        "id": 1703214,
        "parent_id": 1703,
        "name_uz": "Избоскан тумани",
        "name_oz": "Izboskan tumani",
        "name_ru": "Избасканский район",
        "name_en": null,
        "regional_center":  null,
        "status": 1
    },
    {
        "id": 1703217,
        "parent_id": 1703,
        "name_uz": "Улуғнор тумани",
        "name_oz": "Ulug`nor tumani",
        "name_ru": "Улугноpский район",
        "name_en": null,
        "regional_center":  null,
        "status": 1
    },
    {
        "id": 1703220,
        "parent_id": 1703,
        "name_uz": "Қўрғонтепа тумани",
        "name_oz": "Qo`rg`ontepa tumani",
        "name_ru": "Кургантепинский район",
        "name_en": null,
        "regional_center":  null,
        "status": 1
    },
    {
        "id": 1703224,
        "parent_id": 1703,
        "name_uz": "Асака тумани",
        "name_oz": "Asaka tumani",
        "name_ru": "Асакинский район",
        "name_en": null,
        "regional_center":  null,
        "status": 1
    },
    {
        "id": 1703227,
        "parent_id": 1703,
        "name_uz": "Мархамат тумани",
        "name_oz": "Marxamat tumani",
        "name_ru": "Мархаматский район",
        "name_en": null,
        "regional_center":  null,
        "status": 1
    },
    {
        "id": 1703230,
        "parent_id": 1703,
        "name_uz": "Шахрихон тумани",
        "name_oz": "Shaxrixon tumani",
        "name_ru": "Шахриханский район",
        "name_en": null,
        "regional_center":  null,
        "status": 1
    },
    {
        "id": 1703232,
        "parent_id": 1703,
        "name_uz": "Пахтаобод тумани",
        "name_oz": "Paxtaobod tumani",
        "name_ru": "Пахтаабадский район",
        "name_en": null,
        "regional_center":  null,
        "status": 1
    },
    {
        "id": 1703236,
        "parent_id": 1703,
        "name_uz": "Хўжаобод тумани",
        "name_oz": "Xo`jaobod tumani",
        "name_ru": "Ходжаабадский район",
        "name_en": null,
        "regional_center":  null,
        "status": 1
    },
    {
        "id": 1703401,
        "parent_id": 1703,
        "name_uz": "Андижон шаҳри",
        "name_oz": "Andijon shahri",
        "name_ru": "Андижан",
        "name_en": null,
        "regional_center":  null,
        "status": 1
    },
    {
        "id": 1703408,
        "parent_id": 1703,
        "name_uz": "Хонобод шаҳри",
        "name_oz": "Xonobod shahri",
        "name_ru": "Ханабад",
        "name_en": null,
        "regional_center":  null,
        "status": 1
    },
    {
        "id": 1706204,
        "parent_id": 1706,
        "name_uz": "Олот тумани",
        "name_oz": "Olot tumani",
        "name_ru": "Алатский район",
        "name_en": null,
        "regional_center":  null,
        "status": 1
    },
    {
        "id": 1706207,
        "parent_id": 1706,
        "name_uz": "Бухоро тумани",
        "name_oz": "Buxoro tumani",
        "name_ru": "Бухарский район",
        "name_en": null,
        "regional_center":  null,
        "status": 1
    },
    {
        "id": 1706212,
        "parent_id": 1706,
        "name_uz": "Вобкент тумани",
        "name_oz": "Vobkent tumani",
        "name_ru": "Вабкентский район",
        "name_en": null,
        "regional_center":  null,
        "status": 1
    },
    {
        "id": 1706215,
        "parent_id": 1706,
        "name_uz": "Ғиждувон тумани",
        "name_oz": "G`ijduvon tumani",
        "name_ru": "Гиждуванский район",
        "name_en": null,
        "regional_center":  null,
        "status": 1
    },
    {
        "id": 1706219,
        "parent_id": 1706,
        "name_uz": "Когон тумани",
        "name_oz": "Kogon tumani",
        "name_ru": "Каганский район",
        "name_en": null,
        "regional_center":  null,
        "status": 1
    },
    {
        "id": 1706230,
        "parent_id": 1706,
        "name_uz": "Қоракўл тумани",
        "name_oz": "Qorako`l tumani",
        "name_ru": "Каракульский район",
        "name_en": null,
        "regional_center":  null,
        "status": 1
    },
    {
        "id": 1706232,
        "parent_id": 1706,
        "name_uz": "Қоровулбозор тумани",
        "name_oz": "Qorovulbozor tumani",
        "name_ru": "Караулбазарский район",
        "name_en": null,
        "regional_center":  null,
        "status": 1
    },
    {
        "id": 1706240,
        "parent_id": 1706,
        "name_uz": "Пешку тумани",
        "name_oz": "Peshku tumani",
        "name_ru": "Пешкунский район",
        "name_en": null,
        "regional_center":  null,
        "status": 1
    },
    {
        "id": 1706242,
        "parent_id": 1706,
        "name_uz": "Ромитан тумани",
        "name_oz": "Romitan tumani",
        "name_ru": "Ромитанский район",
        "name_en": null,
        "regional_center":  null,
        "status": 1
    },
    {
        "id": 1706246,
        "parent_id": 1706,
        "name_uz": "Жондор тумани",
        "name_oz": "Jondor tumani",
        "name_ru": "Жондоpский район",
        "name_en": null,
        "regional_center":  null,
        "status": 1
    },
    {
        "id": 1706258,
        "parent_id": 1706,
        "name_uz": "Шофиркон тумани",
        "name_oz": "Shofirkon tumani",
        "name_ru": "Шафирканский район",
        "name_en": null,
        "regional_center":  null,
        "status": 1
    },
    {
        "id": 1706401,
        "parent_id": 1706,
        "name_uz": "Бухоро шаҳри",
        "name_oz": "Buxoro shahri",
        "name_ru": "Бухара",
        "name_en": null,
        "regional_center":  null,
        "status": 1
    },
    {
        "id": 1706403,
        "parent_id": 1706,
        "name_uz": "Когон шаҳри",
        "name_oz": "Kogon",
        "name_ru": "Каган",
        "name_en": null,
        "regional_center":  null,
        "status": 1
    },
    {
        "id": 1708201,
        "parent_id": 1708,
        "name_uz": "Арнасой тумани",
        "name_oz": "Arnasoy tumani",
        "name_ru": "Арнасайский район",
        "name_en": null,
        "regional_center":  null,
        "status": 1
    },
    {
        "id": 1708204,
        "parent_id": 1708,
        "name_uz": "Бахмал тумани",
        "name_oz": "Baxmal tumani",
        "name_ru": "Бахмальский район",
        "name_en": null,
        "regional_center":  null,
        "status": 1
    },
    {
        "id": 1708209,
        "parent_id": 1708,
        "name_uz": "Ғаллаорол тумани",
        "name_oz": "G`allaorol tumani",
        "name_ru": "Галляаральский район",
        "name_en": null,
        "regional_center":  null,
        "status": 1
    },
    {
        "id": 1708212,
        "parent_id": 1708,
        "name_uz": "Шароф Рашидов тумани",
        "name_oz": "Sharof Rashidov tumani",
        "name_ru": "Шароф Рашидовский район",
        "name_en": null,
        "regional_center":  null,
        "status": 1
    },
    {
        "id": 1708215,
        "parent_id": 1708,
        "name_uz": "Дўстлик тумани",
        "name_oz": "Do`stlik tumani",
        "name_ru": "Дустликский район",
        "name_en": null,
        "regional_center":  null,
        "status": 1
    },
    {
        "id": 1708218,
        "parent_id": 1708,
        "name_uz": "Зомин тумани",
        "name_oz": "Zomin tumani",
        "name_ru": "Зааминский район",
        "name_en": null,
        "regional_center":  null,
        "status": 1
    },
    {
        "id": 1708220,
        "parent_id": 1708,
        "name_uz": "Зарбдор тумани",
        "name_oz": "Zarbdor tumani",
        "name_ru": "Зарбдарский район",
        "name_en": null,
        "regional_center":  null,
        "status": 1
    },
    {
        "id": 1708223,
        "parent_id": 1708,
        "name_uz": "Мирзачўл тумани",
        "name_oz": "Mirzacho`l tumani",
        "name_ru": "Мирзачульский район",
        "name_en": null,
        "regional_center":  null,
        "status": 1
    },
    {
        "id": 1708225,
        "parent_id": 1708,
        "name_uz": "Зафаробод тумани",
        "name_oz": "Zafarobod tumani",
        "name_ru": "Зафарабадский район",
        "name_en": null,
        "regional_center":  null,
        "status": 1
    },
    {
        "id": 1708228,
        "parent_id": 1708,
        "name_uz": "Пахтакор тумани",
        "name_oz": "Paxtakor tumani",
        "name_ru": "Пахтакорский район",
        "name_en": null,
        "regional_center":  null,
        "status": 1
    },
    {
        "id": 1708235,
        "parent_id": 1708,
        "name_uz": "Фориш тумани",
        "name_oz": "Forish tumani",
        "name_ru": "Фаришский район",
        "name_en": null,
        "regional_center":  null,
        "status": 1
    },
    {
        "id": 1708237,
        "parent_id": 1708,
        "name_uz": "Янгиобод тумани",
        "name_oz": "Yangiobod tumani",
        "name_ru": "Янгиободский район",
        "name_en": null,
        "regional_center":  null,
        "status": 1
    },
    {
        "id": 1708401,
        "parent_id": 1708,
        "name_uz": "Жиззах шаҳри",
        "name_oz": "Jizzax",
        "name_ru": "Джизак",
        "name_en": null,
        "regional_center":  null,
        "status": 1
    },
    {
        "id": 1710207,
        "parent_id": 1710,
        "name_uz": "Ғузор тумани",
        "name_oz": "G`uzor tumani",
        "name_ru": "Гузарский район",
        "name_en": null,
        "regional_center":  null,
        "status": 1
    },
    {
        "id": 1710212,
        "parent_id": 1710,
        "name_uz": "Деҳқонобод тумани",
        "name_oz": "Dehqonobod tumani",
        "name_ru": "Дехканабадский район",
        "name_en": null,
        "regional_center":  null,
        "status": 1
    },
    {
        "id": 1710220,
        "parent_id": 1710,
        "name_uz": "Қамаши тумани",
        "name_oz": "Qamashi tumani",
        "name_ru": "Камашинский район",
        "name_en": null,
        "regional_center":  null,
        "status": 1
    },
    {
        "id": 1710224,
        "parent_id": 1710,
        "name_uz": "Қарши тумани",
        "name_oz": "Qarshi tumani",
        "name_ru": "Каршинский район",
        "name_en": null,
        "regional_center":  null,
        "status": 1
    },
    {
        "id": 1710229,
        "parent_id": 1710,
        "name_uz": "Косон тумани",
        "name_oz": "Koson tumani",
        "name_ru": "Касанский район",
        "name_en": null,
        "regional_center":  null,
        "status": 1
    },
    {
        "id": 1710232,
        "parent_id": 1710,
        "name_uz": "Китоб тумани",
        "name_oz": "Kitob tumani",
        "name_ru": "Китабский район",
        "name_en": null,
        "regional_center":  null,
        "status": 1
    },
    {
        "id": 1710233,
        "parent_id": 1710,
        "name_uz": "Миришкор тумани",
        "name_oz": "Mirishkor tumani",
        "name_ru": "Миришкорский район",
        "name_en": null,
        "regional_center":  null,
        "status": 1
    },
    {
        "id": 1710234,
        "parent_id": 1710,
        "name_uz": "Муборак тумани",
        "name_oz": "Muborak tumani",
        "name_ru": "Мубарекский район",
        "name_en": null,
        "regional_center":  null,
        "status": 1
    },
    {
        "id": 1710235,
        "parent_id": 1710,
        "name_uz": "Нишон тумани",
        "name_oz": "Nishon tumani",
        "name_ru": "Нишанский район",
        "name_en": null,
        "regional_center":  null,
        "status": 1
    },
    {
        "id": 1710237,
        "parent_id": 1710,
        "name_uz": "Касби тумани",
        "name_oz": "Kasbi tumani",
        "name_ru": "Касбинский район",
        "name_en": null,
        "regional_center":  null,
        "status": 1
    },
    {
        "id": 1710242,
        "parent_id": 1710,
        "name_uz": "Чироқчи тумани",
        "name_oz": "Chiroqchi tumani",
        "name_ru": "Чиракчинский район",
        "name_en": null,
        "regional_center":  null,
        "status": 1
    },
    {
        "id": 1710245,
        "parent_id": 1710,
        "name_uz": "Шаҳрисабз тумани",
        "name_oz": "Shahrisabz tumani",
        "name_ru": "Шахрисабзский район",
        "name_en": null,
        "regional_center":  null,
        "status": 1
    },
    {
        "id": 1710250,
        "parent_id": 1710,
        "name_uz": "Яккабоғ тумани",
        "name_oz": "Yakkabog` tumani",
        "name_ru": "Яккабагский район",
        "name_en": null,
        "regional_center":  null,
        "status": 1
    },
    {
        "id": 1710401,
        "parent_id": 1710,
        "name_uz": "Қарши шаҳри",
        "name_oz": "Qarshi",
        "name_ru": "Карши",
        "name_en": null,
        "regional_center":  null,
        "status": 1
    },
    {
        "id": 1710405,
        "parent_id": 1710,
        "name_uz": "Шаҳрисабз шаҳри",
        "name_oz": "Shahrisabz shahri",
        "name_ru": "г. Шахрисабз",
        "name_en": null,
        "regional_center":  null,
        "status": 1
    },
    {
        "id": 1712211,
        "parent_id": 1712,
        "name_uz": "Конимех тумани",
        "name_oz": "Konimex tumani",
        "name_ru": "Канимехский район",
        "name_en": null,
        "regional_center":  null,
        "status": 1
    },
    {
        "id": 1712216,
        "parent_id": 1712,
        "name_uz": "Қизилтепа тумани",
        "name_oz": "Qiziltepa tumani",
        "name_ru": "Кызылтепинский район",
        "name_en": null,
        "regional_center":  null,
        "status": 1
    },
    {
        "id": 1712230,
        "parent_id": 1712,
        "name_uz": "Навбаҳор тумани",
        "name_oz": "Navbahor tumani",
        "name_ru": "Навбахорский район",
        "name_en": null,
        "regional_center":  null,
        "status": 1
    },
    {
        "id": 1712234,
        "parent_id": 1712,
        "name_uz": "Кармана тумани",
        "name_oz": "Karmana tumani",
        "name_ru": "Карманинский район",
        "name_en": null,
        "regional_center":  null,
        "status": 1
    },
    {
        "id": 1712238,
        "parent_id": 1712,
        "name_uz": "Нурота тумани",
        "name_oz": "Nurota tumani",
        "name_ru": "Нуратинский район",
        "name_en": null,
        "regional_center":  null,
        "status": 1
    },
    {
        "id": 1712244,
        "parent_id": 1712,
        "name_uz": "Томди тумани",
        "name_oz": "Tomdi tumani",
        "name_ru": "Тамдынский район",
        "name_en": null,
        "regional_center":  null,
        "status": 1
    },
    {
        "id": 1712248,
        "parent_id": 1712,
        "name_uz": "Учқудуқ тумани",
        "name_oz": "Uchquduq tumani",
        "name_ru": "Учкудукский район",
        "name_en": null,
        "regional_center":  null,
        "status": 1
    },
    {
        "id": 1712251,
        "parent_id": 1712,
        "name_uz": "Хатирчи тумани",
        "name_oz": "Xatirchi tumani",
        "name_ru": "Хатырчинский район",
        "name_en": null,
        "regional_center":  null,
        "status": 1
    },
    {
        "id": 1712401,
        "parent_id": 1712,
        "name_uz": "Навоий шаҳри",
        "name_oz": "Navoiy",
        "name_ru": "Навои",
        "name_en": null,
        "regional_center":  null,
        "status": 1
    },
    {
        "id": 1712408,
        "parent_id": 1712,
        "name_uz": "Зарафшон шаҳри",
        "name_oz": "Zarafshon",
        "name_ru": "Заpафшан",
        "name_en": null,
        "regional_center":  null,
        "status": 1
    },
    {
        "id": 1712412,
        "parent_id": 1712,
        "name_uz": "Ғозғон шаҳри",
        "name_oz": "G`ozg`on shahri",
        "name_ru": "г. Гозгон",
        "name_en": null,
        "regional_center":  null,
        "status": 1
    },
    {
        "id": 1714204,
        "parent_id": 1714,
        "name_uz": "Мингбулоқ тумани",
        "name_oz": "Mingbuloq tumani",
        "name_ru": "Мингбулакский pайон",
        "name_en": null,
        "regional_center":  null,
        "status": 1
    },
    {
        "id": 1714207,
        "parent_id": 1714,
        "name_uz": "Косонсой тумани",
        "name_oz": "Kosonsoy tumani",
        "name_ru": "Касансайский район",
        "name_en": null,
        "regional_center":  null,
        "status": 1
    },
    {
        "id": 1714212,
        "parent_id": 1714,
        "name_uz": "Наманган тумани",
        "name_oz": "Namangan tumani",
        "name_ru": "Наманганский район",
        "name_en": null,
        "regional_center":  null,
        "status": 1
    },
    {
        "id": 1714216,
        "parent_id": 1714,
        "name_uz": "Норин тумани",
        "name_oz": "Norin tumani",
        "name_ru": "Нарынский район",
        "name_en": null,
        "regional_center":  null,
        "status": 1
    },
    {
        "id": 1714219,
        "parent_id": 1714,
        "name_uz": "Поп тумани",
        "name_oz": "Pop tumani",
        "name_ru": "Папский район",
        "name_en": null,
        "regional_center":  null,
        "status": 1
    },
    {
        "id": 1714224,
        "parent_id": 1714,
        "name_uz": "Тўрақўрғон тумани",
        "name_oz": "To`raqo`rg`on tumani",
        "name_ru": "Туракурганский район",
        "name_en": null,
        "regional_center":  null,
        "status": 1
    },
    {
        "id": 1714229,
        "parent_id": 1714,
        "name_uz": "Уйчи тумани",
        "name_oz": "Uychi tumani",
        "name_ru": "Уйчинский район",
        "name_en": null,
        "regional_center":  null,
        "status": 1
    },
    {
        "id": 1714234,
        "parent_id": 1714,
        "name_uz": "Учқўрғон тумани",
        "name_oz": "Uchqo`rg`on tumani",
        "name_ru": "Учкурганский район",
        "name_en": null,
        "regional_center":  null,
        "status": 1
    },
    {
        "id": 1714236,
        "parent_id": 1714,
        "name_uz": "Чортоқ тумани",
        "name_oz": "Chortoq tumani",
        "name_ru": "Чартакский район",
        "name_en": null,
        "regional_center":  null,
        "status": 1
    },
    {
        "id": 1714237,
        "parent_id": 1714,
        "name_uz": "Чуст тумани",
        "name_oz": "Chust tumani",
        "name_ru": "Чустский район",
        "name_en": null,
        "regional_center":  null,
        "status": 1
    },
    {
        "id": 1714242,
        "parent_id": 1714,
        "name_uz": "Янгиқўрғон тумани",
        "name_oz": "Yangiqo`rg`on tumani",
        "name_ru": "Янгикурганский район",
        "name_en": null,
        "regional_center":  null,
        "status": 1
    },
    {
        "id": 1714401,
        "parent_id": 1714,
        "name_uz": "Наманган шаҳри",
        "name_oz": "Namangan",
        "name_ru": "Наманган",
        "name_en": null,
        "regional_center":  null,
        "status": 1
    },
    {
        "id": 1718203,
        "parent_id": 1718,
        "name_uz": "Оқдарё тумани",
        "name_oz": "Oqdaryo tumani",
        "name_ru": "Акдарьинский район",
        "name_en": null,
        "regional_center":  null,
        "status": 1
    },
    {
        "id": 1718206,
        "parent_id": 1718,
        "name_uz": "Булунғур тумани",
        "name_oz": "Bulung`ur tumani",
        "name_ru": "Булунгурский район",
        "name_en": null,
        "regional_center":  null,
        "status": 1
    },
    {
        "id": 1718209,
        "parent_id": 1718,
        "name_uz": "Жомбой тумани",
        "name_oz": "Jomboy tumani",
        "name_ru": "Джамбайский район",
        "name_en": null,
        "regional_center":  null,
        "status": 1
    },
    {
        "id": 1718212,
        "parent_id": 1718,
        "name_uz": "Иштихон тумани",
        "name_oz": "Ishtixon tumani",
        "name_ru": "Иштыханский район",
        "name_en": null,
        "regional_center":  null,
        "status": 1
    },
    {
        "id": 1718215,
        "parent_id": 1718,
        "name_uz": "Каттақўрғон тумани",
        "name_oz": "Kattaqo`rg`on tumani",
        "name_ru": "Каттакурганский район",
        "name_en": null,
        "regional_center":  null,
        "status": 1
    },
    {
        "id": 1718216,
        "parent_id": 1718,
        "name_uz": "Қўшработ тумани",
        "name_oz": "Qo`shrabot tumani",
        "name_ru": "Кошрабадский район",
        "name_en": null,
        "regional_center":  null,
        "status": 1
    },
    {
        "id": 1718218,
        "parent_id": 1718,
        "name_uz": "Нарпай тумани",
        "name_oz": "Narpay tumani",
        "name_ru": "Нарпайский район",
        "name_en": null,
        "regional_center":  null,
        "status": 1
    },
    {
        "id": 1718224,
        "parent_id": 1718,
        "name_uz": "Пайариқ тумани",
        "name_oz": "Payariq tumani",
        "name_ru": "Пайарыкский район",
        "name_en": null,
        "regional_center":  null,
        "status": 1
    },
    {
        "id": 1718227,
        "parent_id": 1718,
        "name_uz": "Пастдарғом тумани",
        "name_oz": "Pastdarg`om tumani",
        "name_ru": "Пастдаргомский район",
        "name_en": null,
        "regional_center":  null,
        "status": 1
    },
    {
        "id": 1718230,
        "parent_id": 1718,
        "name_uz": "Пахтачи тумани",
        "name_oz": "Paxtachi tumani",
        "name_ru": "Пахтачийский район",
        "name_en": null,
        "regional_center":  null,
        "status": 1
    },
    {
        "id": 1718233,
        "parent_id": 1718,
        "name_uz": "Самарқанд тумани",
        "name_oz": "Samarqand tumani",
        "name_ru": "Самаркандский район",
        "name_en": null,
        "regional_center":  null,
        "status": 1
    },
    {
        "id": 1718235,
        "parent_id": 1718,
        "name_uz": "Нуробод тумани",
        "name_oz": "Nurobod tumani",
        "name_ru": "Нурабадский район",
        "name_en": null,
        "regional_center":  null,
        "status": 1
    },
    {
        "id": 1718236,
        "parent_id": 1718,
        "name_uz": "Ургут тумани",
        "name_oz": "Urgut tumani",
        "name_ru": "Ургутский район",
        "name_en": null,
        "regional_center":  null,
        "status": 1
    },
    {
        "id": 1718238,
        "parent_id": 1718,
        "name_uz": "Тойлоқ тумани",
        "name_oz": "Toyloq tumani",
        "name_ru": "Тайлякский район",
        "name_en": null,
        "regional_center":  null,
        "status": 1
    },
    {
        "id": 1718401,
        "parent_id": 1718,
        "name_uz": "Самарқанд шаҳри",
        "name_oz": "Samarqand",
        "name_ru": "Самарканд",
        "name_en": null,
        "regional_center":  null,
        "status": 1
    },
    {
        "id": 1718406,
        "parent_id": 1718,
        "name_uz": "Каттақўрғон шаҳри",
        "name_oz": "Kattaqo`rg`on",
        "name_ru": "Каттакурган",
        "name_en": null,
        "regional_center":  null,
        "status": 1
    },
    {
        "id": 1722201,
        "parent_id": 1722,
        "name_uz": "Олтинсой тумани",
        "name_oz": "Oltinsoy tumani",
        "name_ru": "Алтынсайский район",
        "name_en": null,
        "regional_center":  null,
        "status": 1
    },
    {
        "id": 1722202,
        "parent_id": 1722,
        "name_uz": "Ангор тумани",
        "name_oz": "Angor tumani",
        "name_ru": "Ангорский район",
        "name_en": null,
        "regional_center":  null,
        "status": 1
    },
    {
        "id": 1722203,
        "parent_id": 1722,
        "name_uz": "Бандихон тумани",
        "name_oz": "Bandixon tumani",
        "name_ru": "Бандихонский район",
        "name_en": null,
        "regional_center":  null,
        "status": 1
    },
    {
        "id": 1722204,
        "parent_id": 1722,
        "name_uz": "Бойсун тумани",
        "name_oz": "Boysun tumani",
        "name_ru": "Байсунский район",
        "name_en": null,
        "regional_center":  null,
        "status": 1
    },
    {
        "id": 1722207,
        "parent_id": 1722,
        "name_uz": "Музработ тумани",
        "name_oz": "Muzrabot tumani",
        "name_ru": "Музрабадский район",
        "name_en": null,
        "regional_center":  null,
        "status": 1
    },
    {
        "id": 1722210,
        "parent_id": 1722,
        "name_uz": "Денов тумани",
        "name_oz": "Denov tumani",
        "name_ru": "Денауский район",
        "name_en": null,
        "regional_center":  null,
        "status": 1
    },
    {
        "id": 1722212,
        "parent_id": 1722,
        "name_uz": "Жарқўрғон тумани",
        "name_oz": "Jarqo`rg`on tumani",
        "name_ru": "Джаркурганский район",
        "name_en": null,
        "regional_center":  null,
        "status": 1
    },
    {
        "id": 1722214,
        "parent_id": 1722,
        "name_uz": "Қумқўрғон тумани",
        "name_oz": "Qumqo`rg`on tumani",
        "name_ru": "Кумкурганский район",
        "name_en": null,
        "regional_center":  null,
        "status": 1
    },
    {
        "id": 1722215,
        "parent_id": 1722,
        "name_uz": "Қизириқ тумани",
        "name_oz": "Qiziriq tumani",
        "name_ru": "Кизирикский район",
        "name_en": null,
        "regional_center":  null,
        "status": 1
    },
    {
        "id": 1722217,
        "parent_id": 1722,
        "name_uz": "Сариосиё тумани",
        "name_oz": "Sariosiyo tumani",
        "name_ru": "Сариасийский район",
        "name_en": null,
        "regional_center":  null,
        "status": 1
    },
    {
        "id": 1722220,
        "parent_id": 1722,
        "name_uz": "Термиз тумани",
        "name_oz": "Termiz tumani",
        "name_ru": "Термезский район",
        "name_en": null,
        "regional_center":  null,
        "status": 1
    },
    {
        "id": 1722221,
        "parent_id": 1722,
        "name_uz": "Узун тумани",
        "name_oz": "Uzun tumani",
        "name_ru": "Узунский район",
        "name_en": null,
        "regional_center":  null,
        "status": 1
    },
    {
        "id": 1722223,
        "parent_id": 1722,
        "name_uz": "Шеробод тумани",
        "name_oz": "Sherobod tumani",
        "name_ru": "Шерабадский район",
        "name_en": null,
        "regional_center":  null,
        "status": 1
    },
    {
        "id": 1722226,
        "parent_id": 1722,
        "name_uz": "Шўрчи тумани",
        "name_oz": "Sho`rchi tumani",
        "name_ru": "Шурчинский район",
        "name_en": null,
        "regional_center":  null,
        "status": 1
    },
    {
        "id": 1722401,
        "parent_id": 1722,
        "name_uz": "Термиз шаҳри",
        "name_oz": "Termiz shahri",
        "name_ru": "Термез",
        "name_en": null,
        "regional_center":  null,
        "status": 1
    },
    {
        "id": 1724206,
        "parent_id": 1724,
        "name_uz": "Оқолтин тумани",
        "name_oz": "Oqoltin tumani",
        "name_ru": "Акалтынский район",
        "name_en": null,
        "regional_center":  null,
        "status": 1
    },
    {
        "id": 1724212,
        "parent_id": 1724,
        "name_uz": "Боёвут тумани",
        "name_oz": "Boyovut tumani",
        "name_ru": "Баяутский район",
        "name_en": null,
        "regional_center":  null,
        "status": 1
    },
    {
        "id": 1724216,
        "parent_id": 1724,
        "name_uz": "Сайхунобод тумани",
        "name_oz": "Sayxunobod tumani",
        "name_ru": "Сайхунабадский район",
        "name_en": null,
        "regional_center":  null,
        "status": 1
    },
    {
        "id": 1724220,
        "parent_id": 1724,
        "name_uz": "Гулистон тумани",
        "name_oz": "Guliston tumani",
        "name_ru": "Гулистанский район",
        "name_en": null,
        "regional_center":  null,
        "status": 1
    },
    {
        "id": 1724226,
        "parent_id": 1724,
        "name_uz": "Сардоба тумани",
        "name_oz": "Sardoba tumani",
        "name_ru": "Сардобский район",
        "name_en": null,
        "regional_center":  null,
        "status": 1
    },
    {
        "id": 1724228,
        "parent_id": 1724,
        "name_uz": "Мирзаобод тумани",
        "name_oz": "Mirzaobod tumani",
        "name_ru": "Мирзаабадский район",
        "name_en": null,
        "regional_center":  null,
        "status": 1
    },
    {
        "id": 1724231,
        "parent_id": 1724,
        "name_uz": "Сирдарё тумани",
        "name_oz": "Sirdaryo tumani",
        "name_ru": "Сырдарьинский район",
        "name_en": null,
        "regional_center":  null,
        "status": 1
    },
    {
        "id": 1724235,
        "parent_id": 1724,
        "name_uz": "Ховос тумани",
        "name_oz": "Xovos tumani",
        "name_ru": "Хавастский район",
        "name_en": null,
        "regional_center":  null,
        "status": 1
    },
    {
        "id": 1724401,
        "parent_id": 1724,
        "name_uz": "Гулистон шаҳри",
        "name_oz": "Guliston shahri",
        "name_ru": "Гулистан",
        "name_en": null,
        "regional_center":  null,
        "status": 1
    },
    {
        "id": 1724410,
        "parent_id": 1724,
        "name_uz": "Ширин шаҳри",
        "name_oz": "Shirin shahri",
        "name_ru": "Шиpин",
        "name_en": null,
        "regional_center":  null,
        "status": 1
    },
    {
        "id": 1724413,
        "parent_id": 1724,
        "name_uz": "Янгиер шаҳри",
        "name_oz": "Yangiyer shahri",
        "name_ru": "Янгиеp",
        "name_en": null,
        "regional_center":  null,
        "status": 1
    },
    {
        "id": 1726262,
        "parent_id": 1726,
        "name_uz": "Учтепа тумани",
        "name_oz": "Uchtepa tumani",
        "name_ru": "Учтепинский район",
        "name_en": null,
        "regional_center":  null,
        "status": 1
    },
    {
        "id": 1726264,
        "parent_id": 1726,
        "name_uz": "Бектемир тумани",
        "name_oz": "Bektemir tumani",
        "name_ru": "Бектемирский район",
        "name_en": null,
        "regional_center":  null,
        "status": 1
    },
    {
        "id": 1726266,
        "parent_id": 1726,
        "name_uz": "Юнусобод тумани",
        "name_oz": "Yunusobod tumani",
        "name_ru": "Юнусабадский район",
        "name_en": null,
        "regional_center":  null,
        "status": 1
    },
    {
        "id": 1726269,
        "parent_id": 1726,
        "name_uz": "Мирзо Улуғбек тумани",
        "name_oz": "Mirzo Ulug`bek tumani",
        "name_ru": "Мирзо-Улугбекский район",
        "name_en": null,
        "regional_center":  null,
        "status": 1
    },
    {
        "id": 1726273,
        "parent_id": 1726,
        "name_uz": "Миробод тумани",
        "name_oz": "Mirobod tumani",
        "name_ru": "Мирабадский район",
        "name_en": null,
        "regional_center":  null,
        "status": 1
    },
    {
        "id": 1726277,
        "parent_id": 1726,
        "name_uz": "Шайхонтохур тумани",
        "name_oz": "Shayxontoxur tumani",
        "name_ru": "Шайхантахурский район",
        "name_en": null,
        "regional_center":  null,
        "status": 1
    },
    {
        "id": 1726280,
        "parent_id": 1726,
        "name_uz": "Олмазор тумани",
        "name_oz": "Olmazor tumani",
        "name_ru": "Алмазарский район",
        "name_en": null,
        "regional_center":  null,
        "status": 1
    },
    {
        "id": 1726283,
        "parent_id": 1726,
        "name_uz": "Сирғали тумани",
        "name_oz": "Sirg`ali tumani",
        "name_ru": "Сергелийский район",
        "name_en": null,
        "regional_center":  null,
        "status": 1
    },
    {
        "id": 1726287,
        "parent_id": 1726,
        "name_uz": "Яккасарой тумани",
        "name_oz": "Yakkasaroy tumani",
        "name_ru": "Яккасарайский район",
        "name_en": null,
        "regional_center":  null,
        "status": 1
    },
    {
        "id": 1726290,
        "parent_id": 1726,
        "name_uz": "Яшнобод тумани",
        "name_oz": "Yashnobod tumani",
        "name_ru": "Яшнободский район",
        "name_en": null,
        "regional_center":  null,
        "status": 1
    },
    {
        "id": 1726292,
        "parent_id": 1726,
        "name_uz": "Янгиҳаёт тумани",
        "name_oz": "Yangihayot tumani",
        "name_ru": "Янгиҳаётский район",
        "name_en": null,
        "regional_center":  null,
        "status": 1
    },
    {
        "id": 1726294,
        "parent_id": 1726,
        "name_uz": "Чилонзор тумани",
        "name_oz": "Chilonzor tumani",
        "name_ru": "Чиланзарский район",
        "name_en": null,
        "regional_center":  null,
        "status": 1
    },
    {
        "id": 1727206,
        "parent_id": 1727,
        "name_uz": "Оққўрғон тумани",
        "name_oz": "Oqqo`rg`on tumani",
        "name_ru": "Аккурганский район",
        "name_en": null,
        "regional_center":  null,
        "status": 1
    },
    {
        "id": 1727212,
        "parent_id": 1727,
        "name_uz": "Оҳангарон тумани",
        "name_oz": "Ohangaron tumani",
        "name_ru": "Ахангаранский район",
        "name_en": null,
        "regional_center":  null,
        "status": 1
    },
    {
        "id": 1727220,
        "parent_id": 1727,
        "name_uz": "Бекобод тумани",
        "name_oz": "Bekobod tumani",
        "name_ru": "Бекабадский район",
        "name_en": null,
        "regional_center":  null,
        "status": 1
    },
    {
        "id": 1727224,
        "parent_id": 1727,
        "name_uz": "Бўстонлиқ тумани",
        "name_oz": "Bo`stonliq tumani",
        "name_ru": "Бостанлыкский район",
        "name_en": null,
        "regional_center":  null,
        "status": 1
    },
    {
        "id": 1727228,
        "parent_id": 1727,
        "name_uz": "Бўка тумани",
        "name_oz": "Bo`ka tumani",
        "name_ru": "Букинский район",
        "name_en": null,
        "regional_center":  null,
        "status": 1
    },
    {
        "id": 1727233,
        "parent_id": 1727,
        "name_uz": "Қуйичирчиқ тумани",
        "name_oz": "Qiyichirchiq tumani",
        "name_ru": "Куйичирчикский район",
        "name_en": null,
        "regional_center":  null,
        "status": 1
    },
    {
        "id": 1727237,
        "parent_id": 1727,
        "name_uz": "Зангиота тумани",
        "name_oz": "Zangiota tumani",
        "name_ru": "Зангиатинский район",
        "name_en": null,
        "regional_center":  null,
        "status": 1
    },
    {
        "id": 1727239,
        "parent_id": 1727,
        "name_uz": "Юқоричирчиқ тумани",
        "name_oz": "Yuqorichirchiq tumani",
        "name_ru": "Юкоричирчикский район",
        "name_en": null,
        "regional_center":  null,
        "status": 1
    },
    {
        "id": 1727248,
        "parent_id": 1727,
        "name_uz": "Қибрай тумани",
        "name_oz": "Qibray tumani",
        "name_ru": "Кибрайский район",
        "name_en": null,
        "regional_center":  null,
        "status": 1
    },
    {
        "id": 1727249,
        "parent_id": 1727,
        "name_uz": "Паркент тумани",
        "name_oz": "Parkent tumani",
        "name_ru": "Паркентский район",
        "name_en": null,
        "regional_center":  null,
        "status": 1
    },
    {
        "id": 1727250,
        "parent_id": 1727,
        "name_uz": "Пскент тумани",
        "name_oz": "Pskent tumani",
        "name_ru": "Пскентский район",
        "name_en": null,
        "regional_center":  null,
        "status": 1
    },
    {
        "id": 1727253,
        "parent_id": 1727,
        "name_uz": "Ўртачирчиқ тумани",
        "name_oz": "O`rtachirchiq tumani",
        "name_ru": "Уртачирчикский район",
        "name_en": null,
        "regional_center":  null,
        "status": 1
    },
    {
        "id": 1727256,
        "parent_id": 1727,
        "name_uz": "Чиноз тумани",
        "name_oz": "Chinoz tumani",
        "name_ru": "Чиназский район",
        "name_en": null,
        "regional_center":  null,
        "status": 1
    },
    {
        "id": 1727259,
        "parent_id": 1727,
        "name_uz": "Янгийўл тумани",
        "name_oz": "Yangiyo`l tumani",
        "name_ru": "Янгиюльский район",
        "name_en": null,
        "regional_center":  null,
        "status": 1
    },
    {
        "id": 1727265,
        "parent_id": 1727,
        "name_uz": "Тошкент тумани",
        "name_oz": "Toshkent tumani",
        "name_ru": "Ташкентский район",
        "name_en": null,
        "regional_center":  null,
        "status": 1
    },
    {
        "id": 1727401,
        "parent_id": 1727,
        "name_uz": "Нурафшон шаҳри",
        "name_oz": "Nurafshon shahri",
        "name_ru": "г.Нурафшан",
        "name_en": null,
        "regional_center":  null,
        "status": 1
    },
    {
        "id": 1727404,
        "parent_id": 1727,
        "name_uz": "Олмалиқ шаҳри",
        "name_oz": "Olmaliq shahri",
        "name_ru": "Алмалык",
        "name_en": null,
        "regional_center":  null,
        "status": 1
    },
    {
        "id": 1727407,
        "parent_id": 1727,
        "name_uz": "Ангрен шаҳри",
        "name_oz": "Angren shahri",
        "name_ru": "Ангрен",
        "name_en": null,
        "regional_center":  null,
        "status": 1
    },
    {
        "id": 1727413,
        "parent_id": 1727,
        "name_uz": "Бекобод шаҳри",
        "name_oz": "Bekobod shahri",
        "name_ru": "Бекабад",
        "name_en": null,
        "regional_center":  null,
        "status": 1
    },
    {
        "id": 1727415,
        "parent_id": 1727,
        "name_uz": "Охангарон шаҳри",
        "name_oz": "Oxangaron shahri",
        "name_ru": "г.Ахангаран",
        "name_en": null,
        "regional_center":  null,
        "status": 1
    },
    {
        "id": 1727419,
        "parent_id": 1727,
        "name_uz": "Чирчиқ шаҳри",
        "name_oz": "Chirchiq shahri",
        "name_ru": "Чиpчик",
        "name_en": null,
        "regional_center":  null,
        "status": 1
    },
    {
        "id": 1727424,
        "parent_id": 1727,
        "name_uz": "Янгийўл шаҳри",
        "name_oz": "Yangiyo`l shahri",
        "name_ru": "г.Янгиюль",
        "name_en": null,
        "regional_center":  null,
        "status": 1
    },
    {
        "id": 1730203,
        "parent_id": 1730,
        "name_uz": "Олтиариқ тумани",
        "name_oz": "Oltiariq tumani",
        "name_ru": "Алтыарыкский район",
        "name_en": null,
        "regional_center":  null,
        "status": 1
    },
    {
        "id": 1730206,
        "parent_id": 1730,
        "name_uz": "Қўштепа тумани",
        "name_oz": "Qo`shtepa tumani",
        "name_ru": "Куштепинский район",
        "name_en": null,
        "regional_center":  null,
        "status": 1
    },
    {
        "id": 1730209,
        "parent_id": 1730,
        "name_uz": "Боғдод тумани",
        "name_oz": "Bog`dod tumani",
        "name_ru": "Багдадский район",
        "name_en": null,
        "regional_center":  null,
        "status": 1
    },
    {
        "id": 1730212,
        "parent_id": 1730,
        "name_uz": "Бувайда тумани",
        "name_oz": "Buvayda tumani",
        "name_ru": "Бувайдинский район",
        "name_en": null,
        "regional_center":  null,
        "status": 1
    },
    {
        "id": 1730215,
        "parent_id": 1730,
        "name_uz": "Бешариқ тумани",
        "name_oz": "Beshariq tumani",
        "name_ru": "Бешарыкский район",
        "name_en": null,
        "regional_center":  null,
        "status": 1
    },
    {
        "id": 1730218,
        "parent_id": 1730,
        "name_uz": "Қува тумани",
        "name_oz": "Quva tumani",
        "name_ru": "Кувинский район",
        "name_en": null,
        "regional_center":  null,
        "status": 1
    },
    {
        "id": 1730221,
        "parent_id": 1730,
        "name_uz": "Учкўприк тумани",
        "name_oz": "Uchko`prik tumani",
        "name_ru": "Учкуприкский район",
        "name_en": null,
        "regional_center":  null,
        "status": 1
    },
    {
        "id": 1730224,
        "parent_id": 1730,
        "name_uz": "Риштон тумани",
        "name_oz": "Rishton tumani",
        "name_ru": "Риштанский район",
        "name_en": null,
        "regional_center":  null,
        "status": 1
    },
    {
        "id": 1730226,
        "parent_id": 1730,
        "name_uz": "Сўх тумани",
        "name_oz": "So`x tumani",
        "name_ru": "Сохский район",
        "name_en": null,
        "regional_center":  null,
        "status": 1
    },
    {
        "id": 1730227,
        "parent_id": 1730,
        "name_uz": "Тошлоқ тумани",
        "name_oz": "Toshloq tumani",
        "name_ru": "Ташлакский район",
        "name_en": null,
        "regional_center":  null,
        "status": 1
    },
    {
        "id": 1730230,
        "parent_id": 1730,
        "name_uz": "Ўзбекистон тумани",
        "name_oz": "O`zbekiston tumani",
        "name_ru": "Узбекистанский район",
        "name_en": null,
        "regional_center":  null,
        "status": 1
    },
    {
        "id": 1730233,
        "parent_id": 1730,
        "name_uz": "Фарғона тумани",
        "name_oz": "Farg`ona tumani",
        "name_ru": "Ферганский район",
        "name_en": null,
        "regional_center":  null,
        "status": 1
    },
    {
        "id": 1730236,
        "parent_id": 1730,
        "name_uz": "Данғара тумани",
        "name_oz": "Dang`ara tumani",
        "name_ru": "Дангаринский район",
        "name_en": null,
        "regional_center":  null,
        "status": 1
    },
    {
        "id": 1730238,
        "parent_id": 1730,
        "name_uz": "Фурқат тумани",
        "name_oz": "Furqat tumani",
        "name_ru": "Фуркатский район",
        "name_en": null,
        "regional_center":  null,
        "status": 1
    },
    {
        "id": 1730242,
        "parent_id": 1730,
        "name_uz": "Ёзёвон тумани",
        "name_oz": "Yozyovon tumani",
        "name_ru": "Язъяванский район",
        "name_en": null,
        "regional_center":  null,
        "status": 1
    },
    {
        "id": 1730401,
        "parent_id": 1730,
        "name_uz": "Фарғона шаҳри",
        "name_oz": "Farg`ona shahri",
        "name_ru": "Фергана",
        "name_en": null,
        "regional_center":  null,
        "status": 1
    },
    {
        "id": 1730405,
        "parent_id": 1730,
        "name_uz": "Қўқон шаҳри",
        "name_oz": "Qo`qon shahri",
        "name_ru": "Коканд",
        "name_en": null,
        "regional_center":  null,
        "status": 1
    },
    {
        "id": 1730408,
        "parent_id": 1730,
        "name_uz": "Қувасой шаҳри",
        "name_oz": "Quvasoy shahri",
        "name_ru": "Кувасай",
        "name_en": null,
        "regional_center":  null,
        "status": 1
    },
    {
        "id": 1730412,
        "parent_id": 1730,
        "name_uz": "Марғилон шаҳри",
        "name_oz": "Marg`ilon shahri",
        "name_ru": "Маpгилан",
        "name_en": null,
        "regional_center":  null,
        "status": 1
    },
    {
        "id": 1733204,
        "parent_id": 1733,
        "name_uz": "Боғот тумани",
        "name_oz": "Bog`ot tumani",
        "name_ru": "Багатский район",
        "name_en": null,
        "regional_center":  null,
        "status": 1
    },
    {
        "id": 1733208,
        "parent_id": 1733,
        "name_uz": "Гурлан тумани",
        "name_oz": "Gurlan tumani",
        "name_ru": "Гурленский район",
        "name_en": null,
        "regional_center":  null,
        "status": 1
    },
    {
        "id": 1733212,
        "parent_id": 1733,
        "name_uz": "Қўшкўпир тумани",
        "name_oz": "Qo`shko`pir tumani",
        "name_ru": "Кошкупырский район",
        "name_en": null,
        "regional_center":  null,
        "status": 1
    },
    {
        "id": 1733217,
        "parent_id": 1733,
        "name_uz": "Урганч тумани",
        "name_oz": "Urganch tumani",
        "name_ru": "Ургенчский район",
        "name_en": null,
        "regional_center":  null,
        "status": 1
    },
    {
        "id": 1733220,
        "parent_id": 1733,
        "name_uz": "Хазорасп тумани",
        "name_oz": "Xazorasp tumani",
        "name_ru": "Хазараспский район",
        "name_en": null,
        "regional_center":  null,
        "status": 1
    },
    {
        "id": 1733221,
        "parent_id": 1733,
        "name_uz": "Тупроққалъа тумани",
        "name_oz": "Tuproqqal'a tumani",
        "name_ru": "Тупроккалинский район",
        "name_en": null,
        "regional_center":  null,
        "status": 1
    },
    {
        "id": 1733223,
        "parent_id": 1733,
        "name_uz": "Хонқа тумани",
        "name_oz": "Xonqa tumani",
        "name_ru": "Ханкинский район",
        "name_en": null,
        "regional_center":  null,
        "status": 1
    },
    {
        "id": 1733226,
        "parent_id": 1733,
        "name_uz": "Хива тумани",
        "name_oz": "Xiva tumani",
        "name_ru": "Хивинский район",
        "name_en": null,
        "regional_center":  null,
        "status": 1
    },
    {
        "id": 1733230,
        "parent_id": 1733,
        "name_uz": "Шовот тумани",
        "name_oz": "Shovot tumani",
        "name_ru": "Шаватский район",
        "name_en": null,
        "regional_center":  null,
        "status": 1
    },
    {
        "id": 1733233,
        "parent_id": 1733,
        "name_uz": "Янгиариқ тумани",
        "name_oz": "Yangiariq tumani",
        "name_ru": "Янгиарыкский район",
        "name_en": null,
        "regional_center":  null,
        "status": 1
    },
    {
        "id": 1733236,
        "parent_id": 1733,
        "name_uz": "Янгибозор тумани",
        "name_oz": "Yangibozor tumani",
        "name_ru": "Янгибазарский район",
        "name_en": null,
        "regional_center":  null,
        "status": 1
    },
    {
        "id": 1733401,
        "parent_id": 1733,
        "name_uz": "Урганч шаҳри",
        "name_oz": "Urganch shahri",
        "name_ru": "Ургенч",
        "name_en": null,
        "regional_center":  null,
        "status": 1
    },
    {
        "id": 1733406,
        "parent_id": 1733,
        "name_uz": "Хива шаҳри",
        "name_oz": "Xiva shahri",
        "name_ru": "г. Хива",
        "name_en": null,
        "regional_center":  null,
        "status": 1
    },
    {
        "id": 1735204,
        "parent_id": 1735,
        "name_uz": "Амударё тумани",
        "name_oz": "Amudaryo tumani",
        "name_ru": "Амударьинский район",
        "name_en": null,
        "regional_center":  null,
        "status": 1
    },
    {
        "id": 1735207,
        "parent_id": 1735,
        "name_uz": "Беруний тумани",
        "name_oz": "Beruniy tumani",
        "name_ru": "Берунийский район",
        "name_en": null,
        "regional_center":  null,
        "status": 1
    },
    {
        "id": 1735209,
        "parent_id": 1735,
        "name_uz": "Бўзатов тумани",
        "name_oz": "Bo'zatov tumani",
        "name_ru": "Бозатауский район",
        "name_en": null,
        "regional_center":  null,
        "status": 1
    },
    {
        "id": 1735211,
        "parent_id": 1735,
        "name_uz": "Қораўзак тумани",
        "name_oz": "Qorao`zak tumani",
        "name_ru": "Караузякский район",
        "name_en": null,
        "regional_center":  null,
        "status": 1
    },
    {
        "id": 1735212,
        "parent_id": 1735,
        "name_uz": "Кегейли тумани",
        "name_oz": "Kegeyli tumani",
        "name_ru": "Кегейлийский район",
        "name_en": null,
        "regional_center":  null,
        "status": 1
    },
    {
        "id": 1735215,
        "parent_id": 1735,
        "name_uz": "Қўнғирот тумани",
        "name_oz": "Qo`ng`irot tumani",
        "name_ru": "Кунградский район",
        "name_en": null,
        "regional_center":  null,
        "status": 1
    },
    {
        "id": 1735218,
        "parent_id": 1735,
        "name_uz": "Қанликўл тумани",
        "name_oz": "Qanliko`l tumani",
        "name_ru": "Канлыкульский район",
        "name_en": null,
        "regional_center":  null,
        "status": 1
    },
    {
        "id": 1735222,
        "parent_id": 1735,
        "name_uz": "Мўйноқ тумани",
        "name_oz": "Mo`ynoq tumani",
        "name_ru": "Муйнакский район",
        "name_en": null,
        "regional_center":  null,
        "status": 1
    },
    {
        "id": 1735225,
        "parent_id": 1735,
        "name_uz": "Нукус тумани",
        "name_oz": "Nukus tumani",
        "name_ru": "Нукусский район",
        "name_en": null,
        "regional_center":  null,
        "status": 1
    },
    {
        "id": 1735228,
        "parent_id": 1735,
        "name_uz": "Тахиатош тумани",
        "name_oz": "Taxiatosh tumani",
        "name_ru": "Тахиаташский район",
        "name_en": null,
        "regional_center":  null,
        "status": 1
    },
    {
        "id": 1735230,
        "parent_id": 1735,
        "name_uz": "Тахтакўпир тумани",
        "name_oz": "Taxtako`pir tumani",
        "name_ru": "Тахтакупырский район",
        "name_en": null,
        "regional_center":  null,
        "status": 1
    },
    {
        "id": 1735233,
        "parent_id": 1735,
        "name_uz": "Тўрткўл тумани",
        "name_oz": "To`rtko`l tumani",
        "name_ru": "Турткульский район",
        "name_en": null,
        "regional_center":  null,
        "status": 1
    },
    {
        "id": 1735236,
        "parent_id": 1735,
        "name_uz": "Хўжайли тумани",
        "name_oz": "Xo`jayli tumani",
        "name_ru": "Ходжейлийский район",
        "name_en": null,
        "regional_center":  null,
        "status": 1
    },
    {
        "id": 1735240,
        "parent_id": 1735,
        "name_uz": "Чимбой тумани",
        "name_oz": "Chimboy tumani",
        "name_ru": "Чимбайский район",
        "name_en": null,
        "regional_center":  null,
        "status": 1
    },
    {
        "id": 1735243,
        "parent_id": 1735,
        "name_uz": "Шуманай тумани",
        "name_oz": "Shumanay tumani",
        "name_ru": "Шуманайский район",
        "name_en": null,
        "regional_center":  null,
        "status": 1
    },
    {
        "id": 1735250,
        "parent_id": 1735,
        "name_uz": "Элликқалъа тумани",
        "name_oz": "Ellikqal'a tumani",
        "name_ru": "Элликкалинский район",
        "name_en": null,
        "regional_center":  null,
        "status": 1
    },
    {
        "id": 1735401,
        "parent_id": 1735,
        "name_uz": "Нукус шаҳри",
        "name_oz": "Nukus shahri",
        "name_ru": "Нукус",
        "name_en": null,
        "regional_center":  null,
        "status": 1
    }
]
